{
    "links": {
        "self": "http://www.neowsapp.com/rest/v1/neo/3788031?api_key=iIulBulltgU6a56xZRHN4H3l9WmuAYTsLGpBGhQ2"
    },
    "id": "3788031",
    "neo_reference_id": "3788031",
    "name": "(2017 UU5)",
    "designation": "2017 UU5",
    "nasa_jpl_url": "http://ssd.jpl.nasa.gov/sbdb.cgi?sstr=3788031",
    "absolute_magnitude_h": 26.9,
    "estimated_diameter": {
        "kilometers": {
            "estimated_diameter_min": 0.0110803882,
            "estimated_diameter_max": 0.0247765013
        },
        "meters": {
            "estimated_diameter_min": 11.0803882126,
            "estimated_diameter_max": 24.7765012606
        },
        "miles": {
            "estimated_diameter_min": 0.0068850319,
            "estimated_diameter_max": 0.0153953994
        },
        "feet": {
            "estimated_diameter_min": 36.3529808636,
            "estimated_diameter_max": 81.2877363957
        }
    },
    "is_potentially_hazardous_asteroid": false,
    "close_approach_data": [
        {
            "close_approach_date": "2017-10-18",
            "close_approach_date_full": "2017-Oct-18 12:47",
            "epoch_date_close_approach": 1508330820000,
            "relative_velocity": {
                "kilometers_per_second": "6.7708940537",
                "kilometers_per_hour": "24375.2185931861",
                "miles_per_hour": "15145.8129086383"
            },
            "miss_distance": {
                "astronomical": "0.0579281998",
                "lunar": "22.5340697222",
                "kilometers": "8665935.303014426",
                "miles": "5384762.5025380388"
            },
            "orbiting_body": "Earth"
        }
    ],
    "orbital_data": {
        "orbit_id": "1",
        "orbit_determination_date": "2017-10-26 15:12:07",
        "first_observation_date": "2017-10-23",
        "last_observation_date": "2017-10-26",
        "data_arc_in_days": 3,
        "observations_used": 26,
        "orbit_uncertainty": "8",
        "minimum_orbit_intersection": ".0570997",
        "jupiter_tisserand_invariant": "3.223",
        "epoch_osculation": "2458051.5",
        "eccentricity": ".5759638488860008",
        "semi_major_axis": "2.484479169612146",
        "inclination": "2.760903030561784",
        "ascending_node_longitude": "31.27906436612464",
        "orbital_period": "1430.380123948852",
        "perihelion_distance": "1.053508984605239",
        "perihelion_argument": "352.6182274531891",
        "aphelion_distance": "3.915449354619052",
        "perihelion_time": "2458044.306345733059",
        "mean_anomaly": "1.810508614276134",
        "mean_motion": ".2516813495745087",
        "equinox": "J2000",
        "orbit_class": {
            "orbit_class_type": "AMO",
            "orbit_class_description": "Near-Earth asteroid orbits similar to that of 1221 Amor",
            "orbit_class_range": "1.017 AU < q (perihelion) < 1.3 AU"
        }
    },
    "is_sentry_object": false
}